{
  "norad_id": 61951,
  "name": "STARLINK-11395 [DTC]",
  "history": [
    {
      "epoch": "2026-03-28T19:44:02.807808",
      "apogee_km": 360.23072592183144,
      "perigee_km": 359.14095045598333,
      "latitude_deg": -2.53925815486394,
      "longitude_deg": 94.03645311994478,
      "semi_major_axis_km": 6737.822838188908,
      "eccentricity": 8.087e-05,
      "inclination_deg": 53.1571,
      "raan_deg": 276.8863,
      "arg_perigee_deg": 63.6284,
      "mean_anomaly_deg": 296.4817,
      "mean_motion_rev_day": 15.69724297
    }
  ]
}