{"fetched_at":"2026-03-29T16:36:15Z","count":15609,"tles":[{"name":"STARLINK-11395 [DTC]","line1":"1 61951U 24209N   26087.82225472  .00214251  00000+0  17270-2 0  9997","line2":"2 61951  53.1571 276.8863 0000808  63.6284 296.4817 15.69724297 79680","category":"Starlink"}]}